[{"CCSDS_OMM_VERS":"2.0","COMMENT":"GENERATED VIA SPACE-TRACK.ORG API","CREATION_DATE":"2004-08-15T23:35:50","ORIGINATOR":"18 SPCS","OBJECT_NAME":"SL-3 DEB","OBJECT_ID":"1967-067C","CENTER_NAME":"EARTH","REF_FRAME":"TEME","TIME_SYSTEM":"UTC","MEAN_ELEMENT_THEORY":"SGP4","EPOCH":"1967-07-04T14:44:06.429984","MEAN_MOTION":"16.14695965","ECCENTRICITY":"0.00484270","INCLINATION":"51.7466","RA_OF_ASC_NODE":"20.0728","ARG_OF_PERICENTER":"37.0878","MEAN_ANOMALY":"323.3374","EPHEMERIS_TYPE":"0","CLASSIFICATION_TYPE":"U","NORAD_CAT_ID":"2871","ELEMENT_SET_NO":"999","REV_AT_EPOCH":"6","BSTAR":"0.00000000000000","MEAN_MOTION_DOT":"0.00620822","MEAN_MOTION_DDOT":"0.0008564000000","SEMIMAJOR_AXIS":"6612.133","PERIOD":"89.180","APOAPSIS":"266.019","PERIAPSIS":"201.977","OBJECT_TYPE":"DEBRIS","RCS_SIZE":null,"COUNTRY_CODE":null,"LAUNCH_DATE":null,"SITE":null,"DECAY_DATE":"1967-07-08","FILE":"33915","GP_ID":"8756583","TLE_LINE0":"0 SL-3 DEB","TLE_LINE1":"1 02871U 67067  C 67185.61396331  .00620822 +85640-3 +00000-0 0  9999","TLE_LINE2":"2 02871 051.7466 020.0728 0048427 037.0878 323.3374 16.14695965000069"},{"CCSDS_OMM_VERS":"2.0","COMMENT":"GENERATED VIA SPACE-TRACK.ORG API","CREATION_DATE":"2004-08-15T23:35:50","ORIGINATOR":"18 SPCS","OBJECT_NAME":"SL-11 DEB","OBJECT_ID":"1967-069D","CENTER_NAME":"EARTH","REF_FRAME":"TEME","TIME_SYSTEM":"UTC","MEAN_ELEMENT_THEORY":"SGP4","EPOCH":"1967-07-17T22:24:04.230720","MEAN_MOTION":"16.38141913","ECCENTRICITY":"0.00683840","INCLINATION":"49.6766","RA_OF_ASC_NODE":"187.2380","ARG_OF_PERICENTER":"69.1307","MEAN_ANOMALY":"291.4852","EPHEMERIS_TYPE":"0","CLASSIFICATION_TYPE":"U","NORAD_CAT_ID":"2881","ELEMENT_SET_NO":"999","REV_AT_EPOCH":"4","BSTAR":"0.00000000000000","MEAN_MOTION_DOT":"0.20917397","MEAN_MOTION_DDOT":"0.0000000000000","SEMIMAJOR_AXIS":"6548.891","PERIOD":"87.904","APOAPSIS":"215.540","PERIAPSIS":"125.972","OBJECT_TYPE":"DEBRIS","RCS_SIZE":null,"COUNTRY_CODE":null,"LAUNCH_DATE":null,"SITE":null,"DECAY_DATE":"1967-07-18","FILE":"33915","GP_ID":"8756638","TLE_LINE0":"0 SL-11 DEB","TLE_LINE1":"1 02881U 67069  D 67198.93338230  .20917397 +00000-0 +00000-0 0  9997","TLE_LINE2":"2 02881 049.6766 187.2380 0068384 069.1307 291.4852 16.38141913000045"},{"CCSDS_OMM_VERS":"2.0","COMMENT":"GENERATED VIA SPACE-TRACK.ORG API","CREATION_DATE":"2004-08-15T23:35:50","ORIGINATOR":"18 SPCS","OBJECT_NAME":"SL-11 DEB","OBJECT_ID":"1967-069E","CENTER_NAME":"EARTH","REF_FRAME":"TEME","TIME_SYSTEM":"UTC","MEAN_ELEMENT_THEORY":"SGP4","EPOCH":"1967-07-18T01:26:16.373472","MEAN_MOTION":"16.31067690","ECCENTRICITY":"0.00656560","INCLINATION":"49.6763","RA_OF_ASC_NODE":"186.5076","ARG_OF_PERICENTER":"69.7477","MEAN_ANOMALY":"291.0455","EPHEMERIS_TYPE":"0","CLASSIFICATION_TYPE":"U","NORAD_CAT_ID":"2882","ELEMENT_SET_NO":"999","REV_AT_EPOCH":"6","BSTAR":"0.00000000000000","MEAN_MOTION_DOT":"0.70351910","MEAN_MOTION_DDOT":"0.0000000000000","SEMIMAJOR_AXIS":"6567.813","PERIOD":"88.285","APOAPSIS":"232.799","PERIAPSIS":"146.556","OBJECT_TYPE":"DEBRIS","RCS_SIZE":null,"COUNTRY_CODE":null,"LAUNCH_DATE":null,"SITE":null,"DECAY_DATE":"1967-07-18","FILE":"33915","GP_ID":"8756639","TLE_LINE0":"0 SL-11 DEB","TLE_LINE1":"1 02882U 67069  E 67199.05991173  .70351910 +00000-0 +00000-0 0  9991","TLE_LINE2":"2 02882 049.6763 186.5076 0065656 069.7477 291.0455 16.31067690000069"},{"CCSDS_OMM_VERS":"2.0","COMMENT":"GENERATED VIA SPACE-TRACK.ORG API","CREATION_DATE":"2004-08-15T23:35:50","ORIGINATOR":"18 SPCS","OBJECT_NAME":"SL-11 PLAT","OBJECT_ID":"1967-069B","CENTER_NAME":"EARTH","REF_FRAME":"TEME","TIME_SYSTEM":"UTC","MEAN_ELEMENT_THEORY":"SGP4","EPOCH":"1967-07-18T05:39:10.999008","MEAN_MOTION":"16.53156437","ECCENTRICITY":"0.00316560","INCLINATION":"49.6763","RA_OF_ASC_NODE":"185.4470","ARG_OF_PERICENTER":"70.6440","MEAN_ANOMALY":"289.6712","EPHEMERIS_TYPE":"0","CLASSIFICATION_TYPE":"U","NORAD_CAT_ID":"2879","ELEMENT_SET_NO":"999","REV_AT_EPOCH":"9","BSTAR":"0.00000000000000","MEAN_MOTION_DOT":"0.20906162","MEAN_MOTION_DDOT":"0.0000000000000","SEMIMAJOR_AXIS":"6509.178","PERIOD":"87.106","APOAPSIS":"151.648","PERIAPSIS":"110.437","OBJECT_TYPE":"DEBRIS","RCS_SIZE":null,"COUNTRY_CODE":null,"LAUNCH_DATE":null,"SITE":null,"DECAY_DATE":"1967-07-18","FILE":"33915","GP_ID":"8756636","TLE_LINE0":"0 SL-11 PLAT","TLE_LINE1":"1 02879U 67069  B 67199.23554397  .20906162 +00000-0 +00000-0 0  9990","TLE_LINE2":"2 02879 049.6763 185.4470 0031656 070.6440 289.6712 16.53156437000099"},{"CCSDS_OMM_VERS":"2.0","COMMENT":"GENERATED VIA SPACE-TRACK.ORG API","CREATION_DATE":"2004-08-15T23:35:50","ORIGINATOR":"18 SPCS","OBJECT_NAME":"THOR ABLESTAR DEB","OBJECT_ID":"1965-017D","CENTER_NAME":"EARTH","REF_FRAME":"TEME","TIME_SYSTEM":"UTC","MEAN_ELEMENT_THEORY":"SGP4","EPOCH":"1967-07-22T22:16:31.840320","MEAN_MOTION":"16.14078902","ECCENTRICITY":"0.00373180","INCLINATION":"90.0211","RA_OF_ASC_NODE":"73.5236","ARG_OF_PERICENTER":"118.8334","MEAN_ANOMALY":"241.6593","EPHEMERIS_TYPE":"0","CLASSIFICATION_TYPE":"U","NORAD_CAT_ID":"1248","ELEMENT_SET_NO":"999","REV_AT_EPOCH":"12976","BSTAR":"0.00000000000000","MEAN_MOTION_DOT":"0.01115410","MEAN_MOTION_DDOT":"0.0000000000000","SEMIMAJOR_AXIS":"6613.818","PERIOD":"89.214","APOAPSIS":"260.365","PERIAPSIS":"211.002","OBJECT_TYPE":"DEBRIS","RCS_SIZE":null,"COUNTRY_CODE":null,"LAUNCH_DATE":null,"SITE":null,"DECAY_DATE":"1967-07-29","FILE":"33915","GP_ID":"8732842","TLE_LINE0":"0 THOR ABLESTAR DEB","TLE_LINE1":"1 01248U 65017  D 67203.92814630  .01115410 +00000-0 +00000-0 0  9998","TLE_LINE2":"2 01248 090.0211 073.5236 0037318 118.8334 241.6593 16.14078902129769"},{"CCSDS_OMM_VERS":"2.0","COMMENT":"GENERATED VIA SPACE-TRACK.ORG API","CREATION_DATE":"2004-08-15T23:35:50","ORIGINATOR":"18 SPCS","OBJECT_NAME":"SL-11 DEB","OBJECT_ID":"1967-074D","CENTER_NAME":"EARTH","REF_FRAME":"TEME","TIME_SYSTEM":"UTC","MEAN_ELEMENT_THEORY":"SGP4","EPOCH":"1967-07-31T20:59:42.172223","MEAN_MOTION":"16.01704686","ECCENTRICITY":"0.01910040","INCLINATION":"49.5893","RA_OF_ASC_NODE":"201.2841","ARG_OF_PERICENTER":"72.7616","MEAN_ANOMALY":"289.4078","EPHEMERIS_TYPE":"0","CLASSIFICATION_TYPE":"U","NORAD_CAT_ID":"2905","ELEMENT_SET_NO":"999","REV_AT_EPOCH":"3","BSTAR":"0.00000000000000","MEAN_MOTION_DOT":"0.01817440","MEAN_MOTION_DDOT":"0.0000000000000","SEMIMAJOR_AXIS":"6647.838","PERIOD":"89.904","APOAPSIS":"396.680","PERIAPSIS":"142.727","OBJECT_TYPE":"DEBRIS","RCS_SIZE":null,"COUNTRY_CODE":null,"LAUNCH_DATE":null,"SITE":null,"DECAY_DATE":"1967-08-02","FILE":"33915","GP_ID":"8756947","TLE_LINE0":"0 SL-11 DEB","TLE_LINE1":"1 02905U 67074  D 67212.87479366  .01817440 +00000-0 +00000-0 0  9993","TLE_LINE2":"2 02905 049.5893 201.2841 0191004 072.7616 289.4078 16.01704686000038"},{"CCSDS_OMM_VERS":"2.0","COMMENT":"GENERATED VIA SPACE-TRACK.ORG API","CREATION_DATE":"2004-08-15T23:35:50","ORIGINATOR":"18 SPCS","OBJECT_NAME":"SL-11 DEB","OBJECT_ID":"1967-074E","CENTER_NAME":"EARTH","REF_FRAME":"TEME","TIME_SYSTEM":"UTC","MEAN_ELEMENT_THEORY":"SGP4","EPOCH":"1967-07-31T23:48:10.236095","MEAN_MOTION":"16.50423340","ECCENTRICITY":"0.00283970","INCLINATION":"49.4601","RA_OF_ASC_NODE":"200.3851","ARG_OF_PERICENTER":"36.2842","MEAN_ANOMALY":"323.9981","EPHEMERIS_TYPE":"0","CLASSIFICATION_TYPE":"U","NORAD_CAT_ID":"2906","ELEMENT_SET_NO":"999","REV_AT_EPOCH":"5","BSTAR":"0.00000000000000","MEAN_MOTION_DOT":"0.01817440","MEAN_MOTION_DDOT":"0.0000000000000","SEMIMAJOR_AXIS":"6516.362","PERIOD":"87.250","APOAPSIS":"156.731","PERIAPSIS":"119.722","OBJECT_TYPE":"DEBRIS","RCS_SIZE":null,"COUNTRY_CODE":null,"LAUNCH_DATE":null,"SITE":null,"DECAY_DATE":"1967-08-01","FILE":"33915","GP_ID":"8756948","TLE_LINE0":"0 SL-11 DEB","TLE_LINE1":"1 02906U 67074  E 67212.99178514  .01817440 +00000-0 +00000-0 0  9998","TLE_LINE2":"2 02906 049.4601 200.3851 0028397 036.2842 323.9981 16.50423340000054"},{"CCSDS_OMM_VERS":"2.0","COMMENT":"GENERATED VIA SPACE-TRACK.ORG API","CREATION_DATE":"2004-08-15T23:35:50","ORIGINATOR":"18 SPCS","OBJECT_NAME":"SL-11 PLAT","OBJECT_ID":"1967-074C","CENTER_NAME":"EARTH","REF_FRAME":"TEME","TIME_SYSTEM":"UTC","MEAN_ELEMENT_THEORY":"SGP4","EPOCH":"1967-08-01T02:44:54.950496","MEAN_MOTION":"16.42717029","ECCENTRICITY":"0.00594620","INCLINATION":"49.4601","RA_OF_ASC_NODE":"199.6745","ARG_OF_PERICENTER":"36.8923","MEAN_ANOMALY":"323.6047","EPHEMERIS_TYPE":"0","CLASSIFICATION_TYPE":"U","NORAD_CAT_ID":"2904","ELEMENT_SET_NO":"999","REV_AT_EPOCH":"7","BSTAR":"0.00000000000000","MEAN_MOTION_DOT":"0.01817440","MEAN_MOTION_DDOT":"0.0000000000000","SEMIMAJOR_AXIS":"6536.725","PERIOD":"87.659","APOAPSIS":"197.459","PERIAPSIS":"119.722","OBJECT_TYPE":"DEBRIS","RCS_SIZE":null,"COUNTRY_CODE":null,"LAUNCH_DATE":null,"SITE":null,"DECAY_DATE":"1967-08-01","FILE":"33915","GP_ID":"8756946","TLE_LINE0":"0 SL-11 PLAT","TLE_LINE1":"1 02904U 67074  C 67213.11452489  .01817440 +00000-0 +00000-0 0  9997","TLE_LINE2":"2 02904 049.4601 199.6745 0059462 036.8923 323.6047 16.42717029000070"}]